STARLINK-30089          
1 56296U 23056L   26068.34242496  .00109192  00000+0  39504-2 0  9994
2 56296  42.9999 171.0972 0001478 246.7575 113.3121 15.27318984160440
STARLINK-30069          
1 56834U 23079M   26067.48212902 -.00002416  00000+0 -80472-4 0  9995
2 56834  42.9986 110.4464 0000469 272.6695  87.4103 15.26726881152740
